QUANTUTONG 1            
1 43158U 18008D   21345.94257723  .00001039  00000+0  63886-4 0  9999
2 43158  97.3803  43.5793 0015014  75.1424  99.2145 15.12084267214753
S-NET D                 
1 43186U 18014G   21345.46961795  .00000325  00000+0  33065-4 0  9998
2 43186  97.6676 249.7624 0010369 202.4251 157.6519 14.97258118210782
S-NET B                 
1 43187U 18014H   21345.46960812  .00000330  00000+0  33460-4 0  9993
2 43187  97.6673 249.7221 0010370 202.3252 157.7520 14.97257449210784
S-NET A                 
1 43188U 18014J   21345.67028171  .00000344  00000+0  34626-4 0  9990
2 43188  97.6677 249.9721 0010381 201.6936 158.3848 14.97256638210812
S-NET C                 
1 43189U 18014K   21345.73763510  .00000367  00000+0  36689-4 0  9997
2 43189  97.6672 249.9760 0010394 201.2117 158.8675 14.97255990209374
FENGMANIU-1 (FMN-1)     
1 43192U 18015A   21345.84981667  .00004803  00000+0  16664-3 0  9998
2 43192  97.5114 122.6089 0012887 340.2867 189.3280 15.30216460214693
SHAONIAN XING           
1 43199U 18015H   21345.88664164  .00003171  00000+0  11494-3 0  9992
2 43199  97.4902 119.0759 0014679 350.9824 107.8151 15.29033324214742
LUOJIA-1 01             
1 43485U 18048B   21345.90508656  .00000285  00000+0  47697-4 0  9990
2 43485  97.9513  65.1008 0012714  86.0175 274.2467 14.76974826190187
SURFSAT                 
1 43614U 18070B   21345.82172342  .00005857  00000+0  12506-3 0  9999
2 43614  93.0236  19.9903 0014978  43.5728 316.6710 15.44763531182028
CP7 (DAVE)              
1 43615U 18070C   21345.55405093  .00005173  00000+0  11203-3 0  9996
2 43615  93.0240  19.8070 0015250  44.7243 315.5241 15.44350751181962
ELFIN-B                 
1 43616U 18070D   21345.41881848  .00010053  00000+0  18537-3 0  9998
2 43616  93.0194  20.2287 0014182  40.9202 319.3119 15.49009411182127
ELFIN-A                 
1 43617U 18070E   21345.82669798  .00009811  00000+0  17596-3 0  9996
2 43617  93.0242  21.4363 0013266  37.3262 322.8917 15.49816539182210
CZ-4B R/B               
1 43656U 18081B   21345.57853848  .00000005  00000+0  19611-4 0  9991
2 43656  99.3761  99.5291 0207924 324.1608  34.5769 14.30494995163499
CUBEBEL-1 (BSUSAT-1)    
1 43666U 18083E   21345.81966769  .00001828  00000+0  87410-4 0  9994
2 43666  97.4405  11.8970 0012503 270.6629 143.4113 15.20206010172953
CHANGSHAGAOXIN (TY 4-01)
1 43669U 18083H   21345.83587098  .00001709  00000+0  85003-4 0  9997
2 43669  97.4331   8.4514 0008731 267.7986 213.8422 15.18938598172800
TEN-KOH                 
1 43677U 18084G   21345.61520644  .00000303  00000+0  36837-4 0  9997
2 43677  97.9413 109.3579 0016313 166.1649 194.0019 14.90614497169693
DIWATA-2B               
1 43678U 18084H   21345.79883530  .00000627  00000+0  67787-4 0  9990
2 43678  97.9468 112.2512 0009862 177.2101 182.9178 14.91852441169877
STARS-AO                
1 43679U 18084J   21345.81202788  .00000220  00000+0  27033-4 0  9993
2 43679  97.9501 113.7792 0009047 183.0162 177.1003 14.92751255169942
AUTCUBE 2               
1 43681U 18084K   21345.82791388  .00000488  00000+0  53496-4 0  9994
2 43681  97.9466 112.6978 0009520 177.3816 182.7454 14.92277970169867
IRVINE01                
1 43693U 18088D   21345.66641666  .00005559  00000+0  20090-3 0  9993
2 43693  85.0336  76.9706 0017180  91.1637 269.1577 15.28066067171479
ES'HAIL 2               
1 43700U 18090A   21345.91985832  .00000148  00000+0  00000+0 0  9993
2 43700   0.0214  73.3993 0002155 208.3350 156.0617  1.00273457 11143
FACSAT-1                
1 43721U 18096C   21345.82906104  .00002790  00000+0  97182-4 0  9994
2 43721  97.3715  61.6280 0016081   7.7712 131.0739 15.30402572169238
CENTAURI-2              
1 43722U 18096D   21345.88312223  .00003220  00000+0  10640-3 0  9996
2 43722  97.3749  62.9051 0015303   4.9155 355.2234 15.32012949169307
3CAT-1                  
1 43728U 18096K   21345.79620670  .00004083  00000+0  13307-3 0  9991
2 43728  97.3760  63.4893 0015531   9.4107  84.6802 15.32284541169321
INNOSAT-2               
1 43738U 18096V   21345.81053826  .00006314  00000+0  17844-3 0  9997
2 43738  97.3829  67.8248 0019022   0.2594  93.5860 15.36524005169608
REAKTOR HELLO WORLD     
1 43743U 18096AA  21345.63712322  .00002297  00000+0  81474-4 0  9993
2 43743  97.3724  61.7752 0016815  13.7340 346.4355 15.29987671169216
ELYSIUM STAR 2 & LFF    
1 43760U 18099C   21345.91209625  .00000464  00000+0  45428-4 0  9996
2 43760  97.6534  53.5525 0013896 168.4389 191.7154 14.96841361165055
2018-099D               
1 43761U 18099D   21345.94014437  .00000409  00000+0  42082-4 0  9997
2 43761  97.6485  52.4861 0014676 170.8262 189.3241 14.95434850164998
AISTECHSAT 2            
1 43768U 18099L   21345.67281336  .00000727  00000+0  71400-4 0  9997
2 43768  97.6437  50.9343 0011712 169.5654 190.5813 14.95099027164620
FOX-1CLIFF (AO-95)      
1 43770U 18099N   21345.89950931 -.00000029  00000+0  25038-5 0  9991
2 43770  97.6469  52.0038 0014428 178.6837 181.4425 14.95585191164971
RANGE-A                 
1 43772U 18099Q   21345.62068431  .00000901  00000+0  85318-4 0  9993
2 43772  97.6569  53.0209 0014413 166.0068 194.1555 14.95969319164946
RANGE-B                 
1 43773U 18099R   21345.92136183  .00000408  00000+0  42011-4 0  9992
2 43773  97.6396  51.1584 0013915 165.7206 194.4411 14.95406042164961
2018-099T               
1 43775U 18099T   21345.91538823  .00000045  00000+0  92210-5 0  9994
2 43775  97.6469  52.2115 0014851 170.2072 189.9442 14.95452607164970
MOVE-II                 
1 43780U 18099Y   21345.91498371  .00000431  00000+0  43110-4 0  9996
2 43780  97.6491  52.7843 0013535 175.1591 184.9764 14.96343941165000
SNUSAT-2                
1 43782U 18099AA  21345.90459349 -.00000105  00000+0 -43343-5 0  9998
2 43782  97.6469  52.4115 0013000 164.1634 195.9997 14.95807168164991
SNUGLITE                
1 43784U 18099AC  21345.83011826 -.00000004  00000+0  47269-5 0  9994
2 43784  97.6433  52.0201 0015087 172.3160 187.8295 14.95953071165007
ITASAT 1                
1 43786U 18099AE  21345.91946131  .00000233  00000+0  25934-4 0  9998
2 43786  97.6487  52.8242 0015363 172.0878 188.0588 14.95841083165019
KAZSCISAT-1             
1 43787U 18099AF  21345.91021392  .00000282  00000+0  29856-4 0  9993
2 43787  97.6404  51.9563 0014322 168.4457 191.7096 14.96482193165043
EAGLET-I                
1 43790U 18099AJ  21345.91378402 -.00000028  00000+0  25995-5 0  9994
2 43790  97.6479  53.2990 0013538 175.1326 185.0030 14.96158591164748
ESEO                    
1 43792U 18099AL  21345.93017057  .00000413  00000+0  42007-4 0  9993
2 43792  97.6439  52.7533 0013563 171.5673 188.5778 14.95850490164794
CSIM-FD                 
1 43793U 18099AM  21345.90496866  .00000138  00000+0  16982-4 0  9997
2 43793  97.6492  53.4698 0013155 167.6886 192.4660 14.97017546164819
ASTROCAST 0.1           
1 43798U 18099AS  21345.63294566  .00000056  00000+0  99317-5 0  9998
2 43798  97.6494  53.3048 0012828 154.8084 205.3766 14.96464323165010
JY1SAT (JO-97)          
1 43803U 18099AX  21345.91817162  .00000313  00000+0  32831-4 0  9992
2 43803  97.6448  52.5605 0015300 171.8585 188.2888 14.96143221165025
SUOMI-100               
1 43804U 18099AY  21345.66029191  .00000712  00000+0  68309-4 0  9994
2 43804  97.6446  52.2585 0015434 172.5068 187.6387 14.96100493164996
AL-FARABI 2             
1 43805U 18099AZ  21345.96598923  .00000886  00000+0  83097-4 0  9995
2 43805  97.6473  52.8804 0015318 170.1833 189.9687 14.96406514165051
CENTAURI-1              
1 43809U 18099BD  21345.87573607  .00000825  00000+0  78439-4 0  9998
2 43809  97.6463  52.7948 0015417 172.0244 188.1226 14.96042985164720
CHOMPTT                 
1 43855U 18104G   21345.50199448  .00001908  00000+0  75061-4 0  9994
2 43855  85.0365 176.1213 0015405 206.5599 153.4857 15.24813556166068
DAVINCI                 
1 43857U 18104J   21345.51641722  .00006335  00000+0  23150-3 0  9994
2 43857  85.0312 175.3955 0011932 231.9982 128.0186 15.27809751166096
UWE-4                   
1 43880U 18111E   21345.71513718  .00000019  00000+0  66788-5 0  9992
2 43880  97.6784 250.3242 0010782 226.8425 133.1896 14.97172514161607
ZACUBE-2                
1 43907U 18111AH  21345.83083307  .00001219  00000+0  50273-4 0  9995
2 43907  97.2113 233.8179 0021815  29.3688  35.0427 15.25717163164677
MICRODRAGON             
1 43935U 19003D   21345.85305930  .00000946  00000+0  41762-4 0  9997
2 43935  97.1605  19.4928 0019158 116.9230 243.3968 15.23905440161111
AOBA VELOX-IV           
1 43940U 19003J   21345.82447477  .00004469  00000+0  15875-3 0  9992
2 43940  97.1569  23.2292 0023086  97.4159 262.9707 15.29264074161396
M6P                     
1 44109U 19018AF  21345.76355379  .00003121  00000+0  91328-4 0  9990
2 44109  97.4139  63.6753 0054842  80.8150 279.9291 15.34530308150634
FORMOSAT 7-4            
1 44350U 19036M   21345.40055868  .00001070  00000+0  45970-4 0  9992
2 44350  23.9986 235.6572 0005909   1.6116 358.4406 15.08156281135032
PAINANI 1               
1 44365U 19037A   21345.72198368  .00005743  00000+0  13092-3 0  9997
2 44365  45.0047 348.1107 0003636 164.9059 195.1939 15.43983929138147
ACRUX 1                 
1 44369U 19037E   21345.64443635  .00015051  00000+0  23875-3 0  9995
2 44369  45.0042 314.7699 0009948 155.8347 204.3014 15.53258220138486
METEOR-M2 2             
1 44387U 19038A   21345.85805362 -.00000039  00000+0  21672-5 0  9994
2 44387  98.6964 303.4224 0002417  90.7549 269.3909 14.23694872126717
VDNH-80                 
1 44392U 19038G   21345.85151994  .00001595  00000+0  89942-4 0  9995
2 44392  97.6117 310.0957 0022340  62.3637 328.1172 15.14469916134433
D-STAR ONE (LIGHTSAT)   
1 44393U 19038H   21345.65593106  .00001736  00000+0  97730-4 0  9990
2 44393  97.6127 309.7671 0022693  63.4592 296.8962 15.14392641134591
